ONEWEB-0271             
1 48989U 21060Y   24179.93560224 -.00000366  00000+0 -99039-3 0  9990
2 48989  87.9099  11.9517 0002153  81.0942 279.0433 13.16594056145021
ONEWEB-0272             
1 48990U 21060Z   24179.80579729 -.00000117  00000+0 -34085-3 0  9992
2 48990  87.9101  12.0062 0002069  84.4669 275.6698 13.16594664144954
ONEWEB-0273             
1 48991U 21060AA  24179.90395430  .00000090  00000+0  20228-3 0  9991
2 48991  87.9101  11.9734 0001822  82.1265 278.0072 13.16595622144949
ONEWEB-0274             
1 48992U 21060AB  24179.92929030  .00000025  00000+0  31123-4 0  9998
2 48992  87.9108  11.9830 0002337  94.5843 265.5555 13.16595914144980
ONEWEB-0275             
1 48993U 21060AC  24179.91821093  .00000000  00000+0 -33249-4 0  9993
2 48993  87.9101  11.9668 0001900  82.5363 277.5984 13.16594698144912
ONEWEB-0276             
1 48994U 21060AD  24179.79945011 -.00000017  00000+0 -77616-4 0  9992
2 48994  87.9099  11.9862 0001954  79.3499 280.7851 13.16594837144912
ONEWEB-0277             
1 48995U 21060AE  24179.81212787  .00000032  00000+0  50516-4 0  9998
2 48995  87.9099  12.0219 0002244  77.7434 282.3948 13.16595146144903
ONEWEB-0278             
1 48996U 21060AF  24179.57462005 -.00000256  00000+0 -70230-3 0  9996
2 48996  87.9099  12.0280 0001503  85.3161 274.8142 13.16593417145004
ONEWEB-0279             
1 48997U 21060AG  24179.81054880  .00000007  00000+0 -14210-4 0  9992
2 48997  87.9098  11.9787 0002212  81.1847 278.9535 13.16594636144966
ONEWEB-0280             
1 48998U 21060AH  24179.90079276  .00000105  00000+0  24215-3 0  9992
2 48998  87.9101  11.9622 0001719  79.5545 280.5780 13.16595264144911
ONEWEB-0281             
1 48999U 21060AJ  24179.90712870  .00000114  00000+0  26355-3 0  9994
2 48999  87.9100  11.9627 0001929  93.7416 266.3936 13.16595136144984
ONEWEB-0282             
1 49000U 21060AK  24179.93721075 -.00000034  00000+0 -12144-3 0  9992
2 49000  87.9100  11.9734 0001968  77.6522 282.4829 13.16595026144965
ONEWEB-0283             
1 49001U 21060AL  24179.92612931  .00000030  00000+0  43910-4 0  9992
2 49001  87.9099  11.9820 0002074  83.9799 276.1569 13.16595295144974
ONEWEB-0284             
1 49002U 21060AM  24179.91979638  .00000095  00000+0  21467-3 0  9995
2 49002  87.9093  11.9664 0001805  80.6481 279.4854 13.16595142144950
ONEWEB-0285             
1 49075U 21075A   24179.91509754 -.00000194  00000+0 -57437-3 0  9997
2 49075  87.8949 133.8882 0002040  79.9644 280.1715 13.12442131140865
ONEWEB-0286             
1 49076U 21075B   24179.88659402 -.00000087  00000+0 -27605-3 0  9995
2 49076  87.8942 133.8962 0001839  89.1152 271.0187 13.12443722140218
ONEWEB-0287             
1 49077U 21075C   24179.89968638 -.00000135  00000+0 -38197-3 0  9993
2 49077  87.9171 149.0607 0001748  82.7220 277.4110 13.17648477138901
ONEWEB-0288             
1 49078U 21075D   24179.94904496  .00000359  00000+0  96115-3 0  9992
2 49078  87.8942 133.8876 0001891  80.2727 279.8615 13.12442951140846
ONEWEB-0289             
1 49079U 21075E   24179.92875557  .00000578  00000+0  14551-2 0  9992
2 49079  87.9174 149.0828 0002143  82.0517 278.0858 13.17644744139486
ONEWEB-0290             
1 49080U 21075F   24179.91099227  .00000061  00000+0  12290-3 0  9991
2 49080  87.9169 149.0470 0001711  73.4665 286.6655 13.17648667138895
ONEWEB-0291             
1 49081U 21075G   24179.89484484  .00000070  00000+0  14672-3 0  9998
2 49081  87.9165 149.0705 0001828  83.7101 276.4238 13.17648050138880
ONEWEB-0293             
1 49082U 21075H   24179.92068617  .00000033  00000+0  52486-4 0  9994
2 49082  87.9171 149.0799 0001829  77.6207 282.5129 13.17648284138911
ONEWEB-0294             
1 49083U 21075J   24179.95552965  .00000171  00000+0  44083-3 0  9998
2 49083  87.8941 133.8855 0001531  65.1802 294.9486 13.12443478140237
ONEWEB-0295             
1 49084U 21075K   24179.92228580 -.00000113  00000+0 -32299-3 0  9993
2 49084  87.9171 149.0572 0001633  88.7921 271.3398 13.17647772138871
ONEWEB-0296             
1 49085U 21075L   24179.93607236  .00000442  00000+0  11929-2 0  9993
2 49085  87.8944 133.8904 0001282  80.4813 279.6460 13.12442819140232
ONEWEB-0297             
1 49086U 21075M   24179.89064578 -.00000184  00000+0 -54777-3 0  9999
2 49086  87.8951 133.9068 0002071  84.3854 275.7510 13.12442271140839
ONEWEB-0298             
1 49087U 21075N   24179.92552424 -.00000166  00000+0 -45961-3 0  9991
2 49087  87.9173 149.0751 0001990  89.7401 270.3958 13.17647657138902
ONEWEB-0299             
1 49088U 21075P   24179.92716418  .00000004  00000+0 -23285-4 0  9993
2 49088  87.9166 149.0437 0001852  90.2616 269.8727 13.17649089138883
ONEWEB-0300             
1 49089U 21075Q   24179.95876596  .00000048  00000+0  97340-4 0  9991
2 49089  87.8942 133.8823 0002413  84.8038 275.3365 13.12440143140862
ONEWEB-0301             
1 49090U 21075R   24179.86632877  .00000427  00000+0  11527-2 0  9997
2 49090  87.8943 133.9041 0002351  83.6871 276.4525 13.12444020140218
ONEWEB-0302             
1 49091U 21075S   24179.92956309  .00000386  00000+0  10385-2 0  9999
2 49091  87.8943 133.8898 0001820  79.2948 280.8385 13.12448231140204
ONEWEB-0304             
1 49092U 21075T   24179.90130051 -.00000143  00000+0 -40214-3 0  9994
2 49092  87.9171 149.0649 0001760  85.6488 274.4845 13.17648639138852
ONEWEB-0305             
1 49093U 21075U   24179.89322878  .00000047  00000+0  88025-4 0  9997
2 49093  87.9168 149.0530 0001758  96.0318 264.1014 13.17650858139854
ONEWEB-0308             
1 49094U 21075V   24179.92307134 -.00000689  00000+0 -19503-2 0  9997
2 49094  87.8943 133.8905 0002281  81.8398 278.2990 13.12449368140212
ONEWEB-0309             
1 49095U 21075W   24179.89807320 -.00000182  00000+0 -50196-3 0  9998
2 49095  87.9171 149.0571 0001690  69.9169 290.2144 13.17648697138854
ONEWEB-0310             
1 49096U 21075X   24179.93770163  .00000497  00000+0  13456-2 0  9992
2 49096  87.8953 133.8961 0001986  77.6850 282.4501 13.12443264140847
ONEWEB-0311             
1 49097U 21075Y   24179.90453351  .00000081  00000+0  17627-3 0  9991
2 49097  87.9172 149.0567 0001836  97.5316 262.6024 13.17649311138905
ONEWEB-0312             
1 49098U 21075Z   24179.91905858 -.00000033  00000+0 -11790-3 0  9991
2 49098  87.9173 149.0858 0001525  85.8658 274.2647 13.17647267138889
ONEWEB-0313             
1 49099U 21075AA  24179.89646201  .00000043  00000+0  78783-4 0  9998
2 49099  87.9171 149.0926 0001754  87.1800 272.9532 13.17650636138873
ONEWEB-0314             
1 49100U 21075AB  24179.88999035  .00000082  00000+0  17839-3 0  9993
2 49100  87.9167 149.0514 0001621  88.2152 271.9165 13.17650197138849
ONEWEB-0315             
1 49101U 21075AC  24179.91172110 -.00000195  00000+0 -57746-3 0  9993
2 49101  87.8940 133.8860 0002165  83.2696 276.8679 13.12444470140820
ONEWEB-0316             
1 49102U 21075AD  24179.85028611  .00000039  00000+0  65351-4 0  9990
2 49102  87.9153 118.6636 0001973  85.6784 274.4573 13.18686021142409
ONEWEB-0317             
1 49103U 21075AE  24179.90523084 -.00000310  00000+0 -89667-3 0  9990
2 49103  87.8943 133.8968 0002272  69.7012 290.4361 13.12441670140845
ONEWEB-0318             
1 49104U 21075AF  24179.84711899  .00000043  00000+0  77263-4 0  9998
2 49104  87.9150 118.6575 0001941  88.2904 271.8450 13.18685787142366
ONEWEB-0319             
1 49105U 21075AG  24179.90616426  .00000189  00000+0  45453-3 0  9992
2 49105  87.9174 149.0820 0001741 100.7078 259.4249 13.17641105138889
ONEWEB-0323             
1 49106U 21075AH  24179.89549666 -.00000334  00000+0 -96362-3 0  9991
2 49106  87.8942 133.8860 0001933  86.1227 274.0123 13.12440512140200
ONEWEB-0329             
1 49107U 21075AJ  24179.91422252  .00000068  00000+0  14189-3 0  9995
2 49107  87.9172 149.0843 0001846  87.1244 273.0099 13.17647634138869
ONEWEB-0330             
1 49108U 21075AK  24179.91582690 -.00000042  00000+0 -14147-3 0  9997
2 49108  87.9172 149.0846 0001754  82.5930 277.5401 13.17647394138906
ONEWEB-0292             
1 49186U 21083A   24179.81925991 -.00000227  00000+0 -65608-3 0  9999
2 49186  87.8936 103.4444 0002012  81.4489 278.6868 13.13471969136492
ONEWEB-0303             
1 49187U 21083B   24179.91983991  .00000108  00000+0  24171-3 0  9991
2 49187  87.9151 118.6430 0002030  87.1047 273.0318 13.18686610135189
ONEWEB-0306             
1 49188U 21083C   24179.91033610  .00000056  00000+0  10990-3 0  9992
2 49188  87.9149 118.6321 0002085  74.6340 285.5023 13.18689233135223
ONEWEB-0307             
1 49189U 21083D   24179.81370193 -.00000200  00000+0 -58126-3 0  9998
2 49189  87.8937 103.4455 0001868  67.2096 292.9230 13.13471860136494
ONEWEB-0320             
1 49190U 21083E   24179.84079962  .00000023  00000+0  26151-4 0  9998
2 49190  87.9151 118.6702 0002003  79.0038 281.1319 13.18685328135170
ONEWEB-0321             
1 49191U 21083F   24179.73869039  .00000044  00000+0  75245-4 0  9990
2 49191  87.9205  57.5791 0002025  74.0827 286.0530 13.20773079141861
ONEWEB-0322             
1 49192U 21083G   24179.80975276 -.00000134  00000+0 -40249-3 0  9997
2 49192  87.8936 103.4352 0002229  66.0878 294.0484 13.13469501136482
ONEWEB-0324             
1 49193U 21083H   24179.90245295  .00000078  00000+0  16524-3 0  9994
2 49193  87.9151 118.6399 0001757  79.2979 280.8351 13.18687166135204
ONEWEB-0325             
1 49194U 21083J   24179.90717685 -.00008516  00000+0 -21640-1 0  9992
2 49194  87.9152 118.6530 0002307  83.1071 277.0324 13.18726450135211
ONEWEB-0326             
1 49195U 21083K   24179.84554937  .00000065  00000+0  13183-3 0  9999
2 49195  87.9148 118.6636 0001808  95.6548 264.4790 13.18686590135190
ONEWEB-0327             
1 49196U 21083L   24179.89530580  .00000025  00000+0  30960-4 0  9992
2 49196  87.9149 118.6660 0002015  92.1087 268.0276 13.18680945136503
